{
  "links" : {
    "next" : "https://api.nasa.gov/neo/rest/v1/feed?start_date=2006-12-16&end_date=2006-12-16&detailed=true&api_key=t0TVs3DtDT2H8Oy2Zy8m2eVrNsAVKAexjcZXUckd",
    "prev" : "https://api.nasa.gov/neo/rest/v1/feed?start_date=2006-12-14&end_date=2006-12-14&detailed=true&api_key=t0TVs3DtDT2H8Oy2Zy8m2eVrNsAVKAexjcZXUckd",
    "self" : "https://api.nasa.gov/neo/rest/v1/feed?start_date=2006-12-15&end_date=2006-12-15&detailed=true&api_key=t0TVs3DtDT2H8Oy2Zy8m2eVrNsAVKAexjcZXUckd"
  },
  "element_count" : 3,
  "near_earth_objects" : {
    "2006-12-15" : [ {
      "links" : {
        "self" : "https://api.nasa.gov/neo/rest/v1/neo/2202683?api_key=t0TVs3DtDT2H8Oy2Zy8m2eVrNsAVKAexjcZXUckd"
      },
      "neo_reference_id" : "2202683",
      "name" : "202683 (2006 US216)",
      "nasa_jpl_url" : "http://ssd.jpl.nasa.gov/sbdb.cgi?sstr=2202683",
      "absolute_magnitude_h" : 19.8,
      "estimated_diameter" : {
        "kilometers" : {
          "estimated_diameter_min" : 0.2914439045,
          "estimated_diameter_max" : 0.6516883822
        },
        "meters" : {
          "estimated_diameter_min" : 291.4439045349,
          "estimated_diameter_max" : 651.6883821679
        },
        "miles" : {
          "estimated_diameter_min" : 0.1810947904,
          "estimated_diameter_max" : 0.4049402617
        },
        "feet" : {
          "estimated_diameter_min" : 956.1808197541,
          "estimated_diameter_max" : 2138.0853117517
        }
      },
      "is_potentially_hazardous_asteroid" : true,
      "close_approach_data" : [ {
        "close_approach_date" : "2006-12-15",
        "epoch_date_close_approach" : 1166169600000,
        "relative_velocity" : {
          "kilometers_per_second" : "12.0142109965",
          "kilometers_per_hour" : "43251.1595875296",
          "miles_per_hour" : "26874.5885781514"
        },
        "miss_distance" : {
          "astronomical" : "0.0672598019",
          "lunar" : "26.1640644073",
          "kilometers" : "10061923",
          "miles" : "6252189.5"
        },
        "orbiting_body" : "Earth"
      } ],
      "orbital_data" : {
        "orbit_id" : "29",
        "orbit_determination_date" : "2017-04-06 09:25:34",
        "orbit_uncertainty" : "1",
        "minimum_orbit_intersection" : ".0438023",
        "jupiter_tisserand_invariant" : "8.746",
        "epoch_osculation" : "2458000.5",
        "eccentricity" : ".5624434260761629",
        "semi_major_axis" : ".6369752483234813",
        "inclination" : "3.431653857178485",
        "ascending_node_longitude" : "193.3116626398206",
        "orbital_period" : "185.6873259399385",
        "perihelion_distance" : ".2787127073307078",
        "perihelion_argument" : "56.33773299046934",
        "aphelion_distance" : ".9952377893162547",
        "perihelion_time" : "2458053.681497938325",
        "mean_anomaly" : "256.8947441033764",
        "mean_motion" : "1.938742981933209",
        "equinox" : "J2000"
      }
    }, {
      "links" : {
        "self" : "https://api.nasa.gov/neo/rest/v1/neo/3398066?api_key=t0TVs3DtDT2H8Oy2Zy8m2eVrNsAVKAexjcZXUckd"
      },
      "neo_reference_id" : "3398066",
      "name" : "(2007 XB23)",
      "nasa_jpl_url" : "http://ssd.jpl.nasa.gov/sbdb.cgi?sstr=3398066",
      "absolute_magnitude_h" : 27.1,
      "estimated_diameter" : {
        "kilometers" : {
          "estimated_diameter_min" : 0.0101054342,
          "estimated_diameter_max" : 0.0225964377
        },
        "meters" : {
          "estimated_diameter_min" : 10.1054341542,
          "estimated_diameter_max" : 22.5964377109
        },
        "miles" : {
          "estimated_diameter_min" : 0.0062792237,
          "estimated_diameter_max" : 0.0140407711
        },
        "feet" : {
          "estimated_diameter_min" : 33.1543125905,
          "estimated_diameter_max" : 74.1352966996
        }
      },
      "is_potentially_hazardous_asteroid" : false,
      "close_approach_data" : [ {
        "close_approach_date" : "2006-12-15",
        "epoch_date_close_approach" : 1166169600000,
        "relative_velocity" : {
          "kilometers_per_second" : "7.4937181032",
          "kilometers_per_hour" : "26977.3851715412",
          "miles_per_hour" : "16762.6980250613"
        },
        "miss_distance" : {
          "astronomical" : "0.1633693423",
          "lunar" : "63.5506744385",
          "kilometers" : "24439706",
          "miles" : "15186129"
        },
        "orbiting_body" : "Earth"
      } ],
      "orbital_data" : {
        "orbit_id" : "7",
        "orbit_determination_date" : "2017-04-06 09:04:55",
        "orbit_uncertainty" : "7",
        "minimum_orbit_intersection" : ".00246896",
        "jupiter_tisserand_invariant" : "5.881",
        "epoch_osculation" : "2458000.5",
        "eccentricity" : ".05430272346657114",
        "semi_major_axis" : "1.041212205559123",
        "inclination" : "8.529770636830698",
        "ascending_node_longitude" : "260.2729722182227",
        "orbital_period" : "388.0675265683112",
        "perihelion_distance" : ".9846715470906277",
        "perihelion_argument" : "192.9880576811476",
        "aphelion_distance" : "1.097752864027619",
        "perihelion_time" : "2457952.503115713531",
        "mean_anomaly" : "44.52544250720092",
        "mean_motion" : ".9276736015081888",
        "equinox" : "J2000"
      }
    }, {
      "links" : {
        "self" : "https://api.nasa.gov/neo/rest/v1/neo/3620671?api_key=t0TVs3DtDT2H8Oy2Zy8m2eVrNsAVKAexjcZXUckd"
      },
      "neo_reference_id" : "3620671",
      "name" : "(2012 XT111)",
      "nasa_jpl_url" : "http://ssd.jpl.nasa.gov/sbdb.cgi?sstr=3620671",
      "absolute_magnitude_h" : 25.9,
      "estimated_diameter" : {
        "kilometers" : {
          "estimated_diameter_min" : 0.0175612318,
          "estimated_diameter_max" : 0.0392681082
        },
        "meters" : {
          "estimated_diameter_min" : 17.561231848,
          "estimated_diameter_max" : 39.2681081809
        },
        "miles" : {
          "estimated_diameter_min" : 0.0109120402,
          "estimated_diameter_max" : 0.0244000636
        },
        "feet" : {
          "estimated_diameter_min" : 57.6155918963,
          "estimated_diameter_max" : 128.8323800441
        }
      },
      "is_potentially_hazardous_asteroid" : false,
      "close_approach_data" : [ {
        "close_approach_date" : "2006-12-15",
        "epoch_date_close_approach" : 1166169600000,
        "relative_velocity" : {
          "kilometers_per_second" : "19.0866504988",
          "kilometers_per_hour" : "68711.9417956364",
          "miles_per_hour" : "42694.9285007387"
        },
        "miss_distance" : {
          "astronomical" : "0.1640843399",
          "lunar" : "63.8288116455",
          "kilometers" : "24546668",
          "miles" : "15252593"
        },
        "orbiting_body" : "Earth"
      } ],
      "orbital_data" : {
        "orbit_id" : "11",
        "orbit_determination_date" : "2017-04-06 08:47:40",
        "orbit_uncertainty" : "0",
        "minimum_orbit_intersection" : ".0107557",
        "jupiter_tisserand_invariant" : "3.500",
        "epoch_osculation" : "2458000.5",
        "eccentricity" : ".606013032582867",
        "semi_major_axis" : "2.087331585725126",
        "inclination" : "1.84154787738048",
        "ascending_node_longitude" : "270.495413360944",
        "orbital_period" : "1101.502771691651",
        "perihelion_distance" : ".822381441453838",
        "perihelion_argument" : "104.3285244020082",
        "aphelion_distance" : "3.352281729996415",
        "perihelion_time" : "2458425.109917003743",
        "mean_anomaly" : "221.2263409137039",
        "mean_motion" : ".3268262316282001",
        "equinox" : "J2000"
      }
    } ]
  }
}